WORLDVIEW-3 (WV-3)      
1 40115U 14048A   26063.18223385  .00001506  00000+0  18364-3 0  9993
2 40115  97.8643 139.4479 0000549  12.9048 347.2180 14.84820461626321
GAOFEN-2                
1 40118U 14049A   26063.17184550  .00000261  00000+0  40839-4 0  9996
2 40118  98.0240 127.4319 0006652 204.4821 155.6076 14.80759331623693
YAOGAN-21               
1 40143U 14053A   26063.21887628  .00006513  00000+0  26470-3 0  9990
2 40143  97.1626 107.9975 0010148 102.8073 257.4299 15.24831027638950
YAOGAN-22               
1 40275U 14063A   26063.00699795 -.00000027  00000+0  51117-4 0  9992
2 40275 100.7526 212.6043 0006723  70.0872 290.0963 13.15526800545982
ASNARO                  
1 40298U 14070A   26063.19450237  .00014544  00000+0  68398-3 0  9997
2 40298  97.3529 142.1006 0007247 158.7385 201.4152 15.19651924628061
YAOGAN-24               
1 40310U 14072A   26063.22051248  .00001321  00000+0  19835-3 0  9998
2 40310  98.1292 199.7792 0012093 237.4224 122.5818 14.76215905608230
CBERS 4                 
1 40336U 14079A   26063.20640986  .00000105  00000+0  51163-4 0  9994
2 40336  98.3498 123.3949 0000784  54.8928 305.2331 14.35410996588892
YAOGAN-26               
1 40362U 14088A   26063.16072515  .00034241  00000+0  77808-3 0  9996
2 40362  97.0660  66.1497 0007323  78.3381 281.8689 15.42910851621482
SMAP                    
1 40376U 15003A   26063.12254842  .00000815  00000+0  16688-3 0  9999
2 40376  98.1310  71.6891 0001248 113.0374 247.0960 14.63330847592250
KOMPSAT-3A              
1 40536U 15014A   26063.16634213  .00034000  00000+0  59284-3 0  9999
2 40536  97.6865  47.3110 0062929 197.5658 162.3416 15.48399109605537
SENTINEL-2A             
1 40697U 15028A   26056.18000490  .00000159  00000+0  76852-4 0  9999
2 40697  98.5024 132.8928 0054368 194.7437 165.2162 14.30192923557712
GAOFEN-8                
1 40701U 15030A   26063.16804325  .00010813  00000+0  25407-3 0  9990
2 40701  97.6928 250.5085 0009361 207.6417 152.4333 15.42161076595245
CARBONITE 1 (CBNT-1)    
1 40718U 15032D   26063.15700674  .00000708  00000+0  92828-4 0  9995
2 40718  97.6450 245.6624 0013311 280.8559  79.1157 14.83182424573774
YAOGAN-27               
1 40878U 15040A   26063.19574951 -.00000085  00000+0 -11270-3 0  9993
2 40878 100.1090  54.1647 0008896  95.9139 264.2989 13.16064198503854
GAOFEN-9 01             
1 40894U 15047A   26063.19517664  .00001508  00000+0  19209-3 0  9995
2 40894  97.6425 103.6010 0028741 123.0389 237.3592 14.82665486564634
YAOGAN-28               
1 41026U 15064A   26063.19267372  .00012637  00000+0  49474-3 0  9992
2 41026  97.2892 203.8115 0010789 195.9043 164.1859 15.25886968574668
YAOGAN-29               
1 41038U 15069A   26063.19427810  .00000425  00000+0  58970-4 0  9999
2 41038  98.0149  91.6089 0002238  45.3358 314.8038 14.82988223555060
