[{"OBJECT_NAME":"WORLDVIEW-3 (WV-3)","OBJECT_ID":"2014-048A","EPOCH":"2026-03-04T04:22:25.004640","MEAN_MOTION":14.84820461,"ECCENTRICITY":5.49e-5,"INCLINATION":97.8643,"RA_OF_ASC_NODE":139.4479,"ARG_OF_PERICENTER":12.9048,"MEAN_ANOMALY":347.218,"EPHEMERIS_TYPE":0,"CLASSIFICATION_TYPE":"U","NORAD_CAT_ID":40115,"ELEMENT_SET_NO":999,"REV_AT_EPOCH":62632,"BSTAR":0.00018364,"MEAN_MOTION_DOT":1.506e-5,"MEAN_MOTION_DDOT":0},{"OBJECT_NAME":"GAOFEN-2","OBJECT_ID":"2014-049A","EPOCH":"2026-03-04T04:07:27.451200","MEAN_MOTION":14.80759331,"ECCENTRICITY":0.0006652,"INCLINATION":98.024,"RA_OF_ASC_NODE":127.4319,"ARG_OF_PERICENTER":204.4821,"MEAN_ANOMALY":155.6076,"EPHEMERIS_TYPE":0,"CLASSIFICATION_TYPE":"U","NORAD_CAT_ID":40118,"ELEMENT_SET_NO":999,"REV_AT_EPOCH":62369,"BSTAR":4.0839e-5,"MEAN_MOTION_DOT":2.61e-6,"MEAN_MOTION_DDOT":0},{"OBJECT_NAME":"YAOGAN-21","OBJECT_ID":"2014-053A","EPOCH":"2026-03-04T05:15:10.910592","MEAN_MOTION":15.24831027,"ECCENTRICITY":0.0010148,"INCLINATION":97.1626,"RA_OF_ASC_NODE":107.9975,"ARG_OF_PERICENTER":102.8073,"MEAN_ANOMALY":257.4299,"EPHEMERIS_TYPE":0,"CLASSIFICATION_TYPE":"U","NORAD_CAT_ID":40143,"ELEMENT_SET_NO":999,"REV_AT_EPOCH":63895,"BSTAR":0.0002647,"MEAN_MOTION_DOT":6.513e-5,"MEAN_MOTION_DDOT":0},{"OBJECT_NAME":"YAOGAN-22","OBJECT_ID":"2014-063A","EPOCH":"2026-03-04T00:10:04.622880","MEAN_MOTION":13.155268,"ECCENTRICITY":0.0006723,"INCLINATION":100.7526,"RA_OF_ASC_NODE":212.6043,"ARG_OF_PERICENTER":70.0872,"MEAN_ANOMALY":290.0963,"EPHEMERIS_TYPE":0,"CLASSIFICATION_TYPE":"U","NORAD_CAT_ID":40275,"ELEMENT_SET_NO":999,"REV_AT_EPOCH":54598,"BSTAR":5.1117e-5,"MEAN_MOTION_DOT":-2.7e-7,"MEAN_MOTION_DDOT":0},{"OBJECT_NAME":"ASNARO","OBJECT_ID":"2014-070A","EPOCH":"2026-03-04T04:40:05.004768","MEAN_MOTION":15.19651924,"ECCENTRICITY":0.0007247,"INCLINATION":97.3529,"RA_OF_ASC_NODE":142.1006,"ARG_OF_PERICENTER":158.7385,"MEAN_ANOMALY":201.4152,"EPHEMERIS_TYPE":0,"CLASSIFICATION_TYPE":"U","NORAD_CAT_ID":40298,"ELEMENT_SET_NO":999,"REV_AT_EPOCH":62806,"BSTAR":0.00068398,"MEAN_MOTION_DOT":0.00014544,"MEAN_MOTION_DDOT":0},{"OBJECT_NAME":"YAOGAN-24","OBJECT_ID":"2014-072A","EPOCH":"2026-03-04T05:17:32.278272","MEAN_MOTION":14.76215905,"ECCENTRICITY":0.0012093,"INCLINATION":98.1292,"RA_OF_ASC_NODE":199.7792,"ARG_OF_PERICENTER":237.4224,"MEAN_ANOMALY":122.5818,"EPHEMERIS_TYPE":0,"CLASSIFICATION_TYPE":"U","NORAD_CAT_ID":40310,"ELEMENT_SET_NO":999,"REV_AT_EPOCH":60823,"BSTAR":0.00019835,"MEAN_MOTION_DOT":1.321e-5,"MEAN_MOTION_DDOT":0},{"OBJECT_NAME":"CBERS 4","OBJECT_ID":"2014-079A","EPOCH":"2026-03-04T04:57:13.811904","MEAN_MOTION":14.35410996,"ECCENTRICITY":7.84e-5,"INCLINATION":98.3498,"RA_OF_ASC_NODE":123.3949,"ARG_OF_PERICENTER":54.8928,"MEAN_ANOMALY":305.2331,"EPHEMERIS_TYPE":0,"CLASSIFICATION_TYPE":"U","NORAD_CAT_ID":40336,"ELEMENT_SET_NO":999,"REV_AT_EPOCH":58889,"BSTAR":5.1163e-5,"MEAN_MOTION_DOT":1.05e-6,"MEAN_MOTION_DDOT":0},{"OBJECT_NAME":"YAOGAN-26","OBJECT_ID":"2014-088A","EPOCH":"2026-03-04T03:51:26.652960","MEAN_MOTION":15.42910851,"ECCENTRICITY":0.0007323,"INCLINATION":97.066,"RA_OF_ASC_NODE":66.1497,"ARG_OF_PERICENTER":78.3381,"MEAN_ANOMALY":281.8689,"EPHEMERIS_TYPE":0,"CLASSIFICATION_TYPE":"U","NORAD_CAT_ID":40362,"ELEMENT_SET_NO":999,"REV_AT_EPOCH":62148,"BSTAR":0.00077808,"MEAN_MOTION_DOT":0.00034241,"MEAN_MOTION_DDOT":0},{"OBJECT_NAME":"SMAP","OBJECT_ID":"2015-003A","EPOCH":"2026-03-04T02:56:28.183488","MEAN_MOTION":14.63330847,"ECCENTRICITY":0.0001248,"INCLINATION":98.131,"RA_OF_ASC_NODE":71.6891,"ARG_OF_PERICENTER":113.0374,"MEAN_ANOMALY":247.096,"EPHEMERIS_TYPE":0,"CLASSIFICATION_TYPE":"U","NORAD_CAT_ID":40376,"ELEMENT_SET_NO":999,"REV_AT_EPOCH":59225,"BSTAR":0.00016688,"MEAN_MOTION_DOT":8.15e-6,"MEAN_MOTION_DDOT":0},{"OBJECT_NAME":"KOMPSAT-3A","OBJECT_ID":"2015-014A","EPOCH":"2026-03-04T03:59:31.960032","MEAN_MOTION":15.48399109,"ECCENTRICITY":0.0062929,"INCLINATION":97.6865,"RA_OF_ASC_NODE":47.311,"ARG_OF_PERICENTER":197.5658,"MEAN_ANOMALY":162.3416,"EPHEMERIS_TYPE":0,"CLASSIFICATION_TYPE":"U","NORAD_CAT_ID":40536,"ELEMENT_SET_NO":999,"REV_AT_EPOCH":60553,"BSTAR":0.00059284,"MEAN_MOTION_DOT":0.00034,"MEAN_MOTION_DDOT":0},{"OBJECT_NAME":"SENTINEL-2A","OBJECT_ID":"2015-028A","EPOCH":"2026-02-25T04:19:12.423360","MEAN_MOTION":14.30192923,"ECCENTRICITY":0.00543683,"INCLINATION":98.5024,"RA_OF_ASC_NODE":132.8928,"ARG_OF_PERICENTER":194.7437,"MEAN_ANOMALY":165.2162,"EPHEMERIS_TYPE":0,"CLASSIFICATION_TYPE":"U","NORAD_CAT_ID":40697,"ELEMENT_SET_NO":999,"REV_AT_EPOCH":55771,"BSTAR":7.6852184e-5,"MEAN_MOTION_DOT":1.59e-6,"MEAN_MOTION_DDOT":0},{"OBJECT_NAME":"GAOFEN-8","OBJECT_ID":"2015-030A","EPOCH":"2026-03-04T04:01:58.936800","MEAN_MOTION":15.42161076,"ECCENTRICITY":0.0009361,"INCLINATION":97.6928,"RA_OF_ASC_NODE":250.5085,"ARG_OF_PERICENTER":207.6417,"MEAN_ANOMALY":152.4333,"EPHEMERIS_TYPE":0,"CLASSIFICATION_TYPE":"U","NORAD_CAT_ID":40701,"ELEMENT_SET_NO":999,"REV_AT_EPOCH":59524,"BSTAR":0.00025407,"MEAN_MOTION_DOT":0.00010813,"MEAN_MOTION_DDOT":0},{"OBJECT_NAME":"CARBONITE 1 (CBNT-1)","OBJECT_ID":"2015-032D","EPOCH":"2026-03-04T03:46:05.382336","MEAN_MOTION":14.83182424,"ECCENTRICITY":0.0013311,"INCLINATION":97.645,"RA_OF_ASC_NODE":245.6624,"ARG_OF_PERICENTER":280.8559,"MEAN_ANOMALY":79.1157,"EPHEMERIS_TYPE":0,"CLASSIFICATION_TYPE":"U","NORAD_CAT_ID":40718,"ELEMENT_SET_NO":999,"REV_AT_EPOCH":57377,"BSTAR":9.2828e-5,"MEAN_MOTION_DOT":7.08e-6,"MEAN_MOTION_DDOT":0},{"OBJECT_NAME":"YAOGAN-27","OBJECT_ID":"2015-040A","EPOCH":"2026-03-04T04:41:52.757664","MEAN_MOTION":13.16064198,"ECCENTRICITY":0.0008896,"INCLINATION":100.109,"RA_OF_ASC_NODE":54.1647,"ARG_OF_PERICENTER":95.9139,"MEAN_ANOMALY":264.2989,"EPHEMERIS_TYPE":0,"CLASSIFICATION_TYPE":"U","NORAD_CAT_ID":40878,"ELEMENT_SET_NO":999,"REV_AT_EPOCH":50385,"BSTAR":-0.0001127,"MEAN_MOTION_DOT":-8.5e-7,"MEAN_MOTION_DDOT":0},{"OBJECT_NAME":"GAOFEN-9 01","OBJECT_ID":"2015-047A","EPOCH":"2026-03-04T04:41:03.261696","MEAN_MOTION":14.82665486,"ECCENTRICITY":0.0028741,"INCLINATION":97.6425,"RA_OF_ASC_NODE":103.601,"ARG_OF_PERICENTER":123.0389,"MEAN_ANOMALY":237.3592,"EPHEMERIS_TYPE":0,"CLASSIFICATION_TYPE":"U","NORAD_CAT_ID":40894,"ELEMENT_SET_NO":999,"REV_AT_EPOCH":56463,"BSTAR":0.00019209,"MEAN_MOTION_DOT":1.508e-5,"MEAN_MOTION_DDOT":0},{"OBJECT_NAME":"YAOGAN-28","OBJECT_ID":"2015-064A","EPOCH":"2026-03-04T04:37:27.009408","MEAN_MOTION":15.25886968,"ECCENTRICITY":0.0010789,"INCLINATION":97.2892,"RA_OF_ASC_NODE":203.8115,"ARG_OF_PERICENTER":195.9043,"MEAN_ANOMALY":164.1859,"EPHEMERIS_TYPE":0,"CLASSIFICATION_TYPE":"U","NORAD_CAT_ID":41026,"ELEMENT_SET_NO":999,"REV_AT_EPOCH":57466,"BSTAR":0.00049474,"MEAN_MOTION_DOT":0.00012637,"MEAN_MOTION_DDOT":0},{"OBJECT_NAME":"YAOGAN-29","OBJECT_ID":"2015-069A","EPOCH":"2026-03-04T04:39:45.627840","MEAN_MOTION":14.82988223,"ECCENTRICITY":0.0002238,"INCLINATION":98.0149,"RA_OF_ASC_NODE":91.6089,"ARG_OF_PERICENTER":45.3358,"MEAN_ANOMALY":314.8038,"EPHEMERIS_TYPE":0,"CLASSIFICATION_TYPE":"U","NORAD_CAT_ID":41038,"ELEMENT_SET_NO":999,"REV_AT_EPOCH":55506,"BSTAR":5.897e-5,"MEAN_MOTION_DOT":4.25e-6,"MEAN_MOTION_DDOT":0}]
